{
  "type": "FeatureCollection",
  "features": [
    {
      "type": "Feature",
      "properties": {
        "norad_id": 66626,
        "name": "STARLINK-35902",
        "group": "last-30-days",
        "lat": 47.10517800597466,
        "lon": -129.1514446446552,
        "alt_km": 412.301435093078,
        "timestamp": "2025-12-14T20:40:30.515742+00:00",
        "meta_object_name": "STARLINK-35902",
        "meta_object_id": "2025-271K",
        "meta_epoch": "2025-12-14T06:00:02.999808",
        "meta_mean_motion": 15.49356601,
        "meta_eccentricity": 6.554e-05,
        "meta_inclination": 53.1601,
        "meta_ra_of_asc_node": 179.9749,
        "meta_arg_of_pericenter": 96.4948,
        "meta_mean_anomaly": 157.6832,
        "meta_ephemeris_type": 0,
        "meta_classification_type": "U",
        "meta_norad_cat_id": 66626,
        "meta_element_set_no": 999,
        "meta_rev_at_epoch": 448,
        "meta_bstar": -0.001891062,
        "meta_mean_motion_dot": -0.00104399,
        "meta_mean_motion_ddot": 0,
        "tle_line1": "1 66626U 25271K   25348.25003472 -.00104399  00000+0 -18911-2 0  9997",
        "tle_line2": "2 66626  53.1601 179.9749 0000655  96.4948 157.6832 15.49356601  4484"
      },
      "geometry": {
        "type": "Point",
        "coordinates": [
          -129.1514446446552,
          47.10517800597466
        ]
      }
    },
    {
      "type": "Feature",
      "properties": {
        "norad_id": 66627,
        "name": "STARLINK-35904",
        "group": "last-30-days",
        "lat": 47.98630882732941,
        "lon": -126.62330761219819,
        "alt_km": 412.06284787757704,
        "timestamp": "2025-12-14T20:40:30.515754+00:00",
        "meta_object_name": "STARLINK-35904",
        "meta_object_id": "2025-271L",
        "meta_epoch": "2025-12-14T06:00:02.999808",
        "meta_mean_motion": 15.49350675,
        "meta_eccentricity": 7.211e-05,
        "meta_inclination": 53.1601,
        "meta_ra_of_asc_node": 179.9708,
        "meta_arg_of_pericenter": 88.8041,
        "meta_mean_anomaly": 167.2868,
        "meta_ephemeris_type": 0,
        "meta_classification_type": "U",
        "meta_norad_cat_id": 66627,
        "meta_element_set_no": 999,
        "meta_rev_at_epoch": 432,
        "meta_bstar": -0.0016335423,
        "meta_mean_motion_dot": -0.00090385,
        "meta_mean_motion_ddot": 0,
        "tle_line1": "1 66627U 25271L   25348.25003472 -.00090385  00000+0 -16335-2 0  9995",
        "tle_line2": "2 66627  53.1601 179.9708 0000721  88.8041 167.2868 15.49350675  4327"
      },
      "geometry": {
        "type": "Point",
        "coordinates": [
          -126.62330761219819,
          47.98630882732941
        ]
      }
    },
    {
      "type": "Feature",
      "properties": {
        "norad_id": 66628,
        "name": "STARLINK-35862",
        "group": "last-30-days",
        "lat": 48.807925917705056,
        "lon": -124.01662621466862,
        "alt_km": 411.91484109243356,
        "timestamp": "2025-12-14T20:40:30.515765+00:00",
        "meta_object_name": "STARLINK-35862",
        "meta_object_id": "2025-271M",
        "meta_epoch": "2025-12-14T06:00:02.999808",
        "meta_mean_motion": 15.49350243,
        "meta_eccentricity": 7.8e-05,
        "meta_inclination": 53.1601,
        "meta_ra_of_asc_node": 179.9668,
        "meta_arg_of_pericenter": 88.1004,
        "meta_mean_anomaly": 169.9119,
        "meta_ephemeris_type": 0,
        "meta_classification_type": "U",
        "meta_norad_cat_id": 66628,
        "meta_element_set_no": 999,
        "meta_rev_at_epoch": 448,
        "meta_bstar": -0.0017054899,
        "meta_mean_motion_dot": -0.00094299,
        "meta_mean_motion_ddot": 0,
        "tle_line1": "1 66628U 25271M   25348.25003472 -.00094299  00000+0 -17055-2 0  9994",
        "tle_line2": "2 66628  53.1601 179.9668 0000780  88.1004 169.9119 15.49350243  4486"
      },
      "geometry": {
        "type": "Point",
        "coordinates": [
          -124.01662621466862,
          48.807925917705056
        ]
      }
    },
    {
      "type": "Feature",
      "properties": {
        "norad_id": 66629,
        "name": "STARLINK-35956",
        "group": "last-30-days",
        "lat": 49.569722085528035,
        "lon": -121.32185472724468,
        "alt_km": 411.81322636898767,
        "timestamp": "2025-12-14T20:40:30.515775+00:00",
        "meta_object_name": "STARLINK-35956",
        "meta_object_id": "2025-271N",
        "meta_epoch": "2025-12-14T06:00:02.999808",
        "meta_mean_motion": 15.49349379,
        "meta_eccentricity": 7.644e-05,
        "meta_inclination": 53.1601,
        "meta_ra_of_asc_node": 179.9633,
        "meta_arg_of_pericenter": 91.6766,
        "meta_mean_anomaly": 168.251,
        "meta_ephemeris_type": 0,
        "meta_classification_type": "U",
        "meta_norad_cat_id": 66629,
        "meta_element_set_no": 999,
        "meta_rev_at_epoch": 448,
        "meta_bstar": -0.0016430753,
        "meta_mean_motion_dot": -0.00090901,
        "meta_mean_motion_ddot": 0,
        "tle_line1": "1 66629U 25271N   25348.25003472 -.00090901  00000+0 -16431-2 0  9998",
        "tle_line2": "2 66629  53.1601 179.9633 0000764  91.6766 168.2510 15.49349379  4480"
      },
      "geometry": {
        "type": "Point",
        "coordinates": [
          -121.32185472724468,
          49.569722085528035
        ]
      }
    },
    {
      "type": "Feature",
      "properties": {
        "norad_id": 66630,
        "name": "STARLINK-35949",
        "group": "last-30-days",
        "lat": 50.244228356833524,
        "lon": -118.64283821986297,
        "alt_km": 411.3854099755308,
        "timestamp": "2025-12-14T20:40:30.515786+00:00",
        "meta_object_name": "STARLINK-35949",
        "meta_object_id": "2025-271P",
        "meta_epoch": "2025-12-14T06:00:02.999808",
        "meta_mean_motion": 15.49263713,
        "meta_eccentricity": 9.548e-05,
        "meta_inclination": 53.1601,
        "meta_ra_of_asc_node": 179.9581,
        "meta_arg_of_pericenter": 90.462,
        "meta_mean_anomaly": 171.3373,
        "meta_ephemeris_type": 0,
        "meta_classification_type": "U",
        "meta_norad_cat_id": 66630,
        "meta_element_set_no": 999,
        "meta_rev_at_epoch": 448,
        "meta_bstar": 0.00062381166,
        "meta_mean_motion_dot": 0.00034343,
        "meta_mean_motion_ddot": 0,
        "tle_line1": "1 66630U 25271P   25348.25003472  .00034343  00000+0  62381-3 0  9992",
        "tle_line2": "2 66630  53.1601 179.9581 0000954  90.4620 171.3373 15.49263713  4480"
      },
      "geometry": {
        "type": "Point",
        "coordinates": [
          -118.64283821986297,
          50.244228356833524
        ]
      }
    },
    {
      "type": "Feature",
      "properties": {
        "norad_id": 66631,
        "name": "STARLINK-35965",
        "group": "last-30-days",
        "lat": 50.891885306875004,
        "lon": -115.71003427082533,
        "alt_km": 411.73774246100766,
        "timestamp": "2025-12-14T20:40:30.515796+00:00",
        "meta_object_name": "STARLINK-35965",
        "meta_object_id": "2025-271Q",
        "meta_epoch": "2025-12-14T06:00:02.999808",
        "meta_mean_motion": 15.49399835,
        "meta_eccentricity": 7.796e-05,
        "meta_inclination": 53.16,
        "meta_ra_of_asc_node": 179.9549,
        "meta_arg_of_pericenter": 46.3904,
        "meta_mean_anomaly": 217.3385,
        "meta_ephemeris_type": 0,
        "meta_classification_type": "U",
        "meta_norad_cat_id": 66631,
        "meta_element_set_no": 999,
        "meta_rev_at_epoch": 448,
        "meta_bstar": -0.0029275548,
        "meta_mean_motion_dot": -0.00160477,
        "meta_mean_motion_ddot": 0,
        "tle_line1": "1 66631U 25271Q   25348.25003472 -.00160477  00000+0 -29276-2 0  9998",
        "tle_line2": "2 66631  53.1600 179.9549 0000779  46.3904 217.3385 15.49399835  4483"
      },
      "geometry": {
        "type": "Point",
        "coordinates": [
          -115.71003427082533,
          50.891885306875004
        ]
      }
    },
    {
      "type": "Feature",
      "properties": {
        "norad_id": 66632,
        "name": "STARLINK-35973",
        "group": "last-30-days",
        "lat": 47.851995410596,
        "lon": -127.02594844360078,
        "alt_km": 426.17507360711534,
        "timestamp": "2025-12-14T20:40:30.515808+00:00",
        "meta_object_name": "STARLINK-35973",
        "meta_object_id": "2025-271R",
        "meta_epoch": "2025-12-14T06:00:02.999808",
        "meta_mean_motion": 15.47112562,
        "meta_eccentricity": 0.00010212,
        "meta_inclination": 53.16,
        "meta_ra_of_asc_node": 179.9544,
        "meta_arg_of_pericenter": 94.7509,
        "meta_mean_anomaly": 168.9468,
        "meta_ephemeris_type": 0,
        "meta_classification_type": "U",
        "meta_norad_cat_id": 66632,
        "meta_element_set_no": 999,
        "meta_rev_at_epoch": 442,
        "meta_bstar": -0.046085486,
        "meta_mean_motion_dot": -0.02105455,
        "meta_mean_motion_ddot": 0,
        "tle_line1": "1 66632U 25271R   25348.25003472 -.02105455  00000+0 -46085-1 0  9992",
        "tle_line2": "2 66632  53.1600 179.9544 0001021  94.7509 168.9468 15.47112562  4423"
      },
      "geometry": {
        "type": "Point",
        "coordinates": [
          -127.02594844360078,
          47.851995410596
        ]
      }
    }
  ]
}